index,countryCode,countryName,cityCode,urbanAgglomeration,latitude,longitude,radius,yearMotorway,yearHST
567,344, China Hong Kong SAR,21137,Hong Kong,22.279588,114.188697,,,
1,4,Afghanistan,20001,Herat,34.34817,62.19967,,,
2,4,Afghanistan,20002,Kabul,34.528887,69.17246,,,
3,4,Afghanistan,20003,Kandahar,31.61332,65.71013,,,
4,8,Albania,20005,Tiranë (Tirana),41.3275,19.81889,,,
5,12,Algeria,20009,Annaba,36.9,7.76667,,,
6,12,Algeria,20011,Batna,35.55597,6.17414,,,
7,12,Algeria,20015,Blida,36.480781,2.831943,,,
8,12,Algeria,20006,El Djazaïr  (Algiers),36.7525,3.04197,,,
9,12,Algeria,20020,El Djelfa,34.67279,3.263,,,
10,12,Algeria,20019,Qacentina,36.354921,6.607293,,,
11,12,Algeria,20035,Wahran (Oran),35.69111,-0.64167,,,
12,24,Angola,20050,Huambo,-12.77611,15.73917,,,
13,24,Angola,20049,Luanda,-8.83682,13.23432,,,
14,24,Angola,204044,Lubango,-14.91717,13.4925,,,
15,32,Argentina,20057,Bahia Blanca,-38.7196,-62.27243,,,
16,32,Argentina,20058,Buenos Aires,-34.605083,-58.400368,,,
17,32,Argentina,20059,Córdoba,-31.4135,-64.18105,,,
18,32,Argentina,20063,Corrientes,-27.4806,-58.8341,,,
19,32,Argentina,20065,La Plata,-34.92145,-57.95453,,,
20,32,Argentina,20067,Mar Del Plata,-38.00228,-57.55754,,,
21,32,Argentina,20068,Mendoza,-32.89084,-68.82717,,,
22,32,Argentina,20070,Neuquén-Plottier-Cipolletti,-38.95143,-68.064809,,,
23,32,Argentina,20072,Posadas,-27.36708,-55.89608,,,
24,32,Argentina,20073,Resistencia,-27.46056,-58.98389,,,
25,32,Argentina,20075,Rosario,-32.94682,-60.63932,,,
26,32,Argentina,20076,Salta,-24.7859,-65.41166,,,
27,32,Argentina,20078,San Juan,-31.5375,-68.53639,,,
28,32,Argentina,20081,San Miguel de Tucumán,-26.82414,-65.2226,,,
29,32,Argentina,20084,San Salvador de Jujuy,-24.19456,-65.29712,,,
30,32,Argentina,20085,Santa Fe,-31.632717,-60.698281,,,
31,32,Argentina,20086,Santiago Del Estero,-27.79511,-64.26149,,,
32,51,Armenia,20140,Yerevan,40.181998,44.514619,,,
33,36,Australia,206171,Adelaide,-34.92866,138.59863,,,
34,36,Australia,206170,Brisbane,-27.46794,153.02809,,,
35,36,Australia,206175,Canberra,-35.28346,149.12807,,,
36,36,Australia,20093,Gold Coast,-28.00029,153.43088,,,
37,36,Australia,206168,Melbourne,-37.814,144.96332,,,
38,36,Australia,206177,Newcastle and Lake Macquarie,-32.924878,151.740852,,,
39,36,Australia,206172,Perth,-31.947841,115.852514,,,
40,36,Australia,20098,Sunshine Coast,-26.66008,153.09953,,,
41,36,Australia,206167,Sydney,-33.86785,151.20732,,,
42,40,Austria,20107,Wien (Vienna),48.206443,16.370725,,,
43,31,Azerbaijan,20053,Baku,40.37767,49.89201,,,
44,31,Azerbaijan,20054,Gäncä,40.68278,46.36056,,,
45,31,Azerbaijan,20056,Sumquayit,40.58972,49.66861,,,
46,48,Bahrain,20109,Al-Manamah (Manama),26.21536,50.5832,,,
47,50,Bangladesh,20110,Barisal,22.70194,90.37111,,,
48,50,Bangladesh,20112,Bogra,24.85,89.36667,,,
49,50,Bangladesh,20115,Chittagong,22.33306,91.83639,,,
50,50,Bangladesh,20117,Comilla,23.45778,91.20444,,,
51,50,Bangladesh,20119,Dhaka,23.7104,90.40744,,,
52,50,Bangladesh,20124,Khulna,22.80978,89.56439,,,
53,50,Bangladesh,20126,Mymensingh,24.75,90.4,,,
54,50,Bangladesh,20131,Rajshahi,24.36667,88.6,,,
55,50,Bangladesh,20132,Rangpur,25.75,89.25,,,
56,50,Bangladesh,20136,Sylhet,24.89667,91.87167,,,
263,156,China,20518,Guilin,25.28194,110.28639,,,
264,156,China,23634,Guiping,23.39336,110.07437,,,
265,156,China,20519,Guiyang,26.58333,106.71667,,,
266,156,China,23637,Haerbin,45.756325,126.646688,,,
267,156,China,23638,Haicheng,40.855239,122.743396,,,
268,156,China,23639,Haikou,20.027423,110.330071,,,
269,156,China,23643,Haimen,31.895193,121.168399,,,
270,156,China,23644,Haining,30.527288,120.68968,,,
271,156,China,20521,Hami,42.825945,93.516917,,,
272,156,China,23646,Hanchuan,30.651646,113.832908,,,
273,156,China,20523,Handan,36.60056,114.46778,,,
274,156,China,20524,Hangzhou,30.29365,120.16142,,,
275,156,China,20525,Hanzhong,33.07278,107.03028,,,
276,156,China,20527,Hebi,35.747018,114.295632,,,
277,156,China,20529,Hefei,31.86389,117.28083,,,
278,156,China,20530,Hegang,47.344338,130.293701,,,
279,156,China,23648,Hejian,38.442546,116.094913,,,
280,156,China,20532,Hengshui,37.741068,115.678068,,,
557,156,China,23770,Zhuanghe,39.705122,122.968765,,,
558,156,China,23769,Zhucheng,35.99472,119.3975,,,
559,156,China,20797,Zhuhai,22.2769,113.5678,,,
560,156,China,23768,Zhuji,29.713158,120.236819,,,
561,156,China,20798,Zhumadian,32.97944,114.02944,,,
562,156,China,20800,Zhuzhou,27.83333,113.15,,,
563,156,China,20801,Zibo,36.79056,118.06333,,,
564,156,China,20802,Zigong,29.34162,104.77689,,,
565,156,China,23767,Ziyang,30.12563,104.630483,,,
566,156,China,20804,Zunyi,27.711309,106.936512,,,
568,446,China  Macao SAR,21791,Macao,22.20056,113.54611,,,
569,170,Colombia,20806,Armenia,4.53389,-75.68111,,,
570,170,Colombia,20808,Barranquilla,10.96389,-74.79639,,,
571,170,Colombia,20837,Bogotá,4.60971,-74.08175,,,
572,170,Colombia,20809,Bucaramanga,7.12539,-73.1198,,,
573,170,Colombia,20810,Buenaventura,3.885028,-77.07001,,,
574,170,Colombia,20812,Cali,3.43722,-76.5225,,,
575,170,Colombia,20813,Cartagena,10.39972,-75.51444,,,
576,170,Colombia,20816,Cúcuta,7.89391,-72.50782,,,
577,170,Colombia,20821,Ibagué,4.43889,-75.23222,,,
578,170,Colombia,20825,Manizales,5.06889,-75.51738,,,
579,170,Colombia,20827,Medellín,6.25184,-75.56359,,,
580,170,Colombia,20828,Monteria,8.74798,-75.88143,,,
581,170,Colombia,20829,Neiva,2.9273,-75.28188,,,
582,170,Colombia,20832,Pasto,1.21361,-77.28111,,,
583,170,Colombia,20833,Pereira,4.81333,-75.69611,,,
584,170,Colombia,20838,Santa Marta,11.24079,-74.19904,,,
585,170,Colombia,20844,Valledupar,10.46314,-73.25322,,,
586,170,Colombia,20845,Villavicencio,4.142,-73.62664,,,
587,178,Congo,20848,Brazzaville,-4.26583,15.28318,,,
588,178,Congo,20849,Pointe-Noire,-4.77609,11.86352,,,
589,188,Costa Rica,20861,San José,9.927817,-84.080685,,,
590,384,Côte d'Ivoire,21602,Abidjan,5.345339,-4.026789,,,
591,384,Côte d'Ivoire,21603,Bouake,7.69385,-5.03031,,,
592,384,Côte d'Ivoire,23547,San Pedro,4.7333333,-6.6166667,,,
593,191,Croatia,20865,Zagreb,45.81444,15.97798,,,
594,192,Cuba,20867,Camaguey,21.38083,-77.91694,,,
595,192,Cuba,20871,Holguin,20.88722,-76.26306,,,
596,192,Cuba,20870,La Habana (Havana),23.119541,-82.378493,,,
597,192,Cuba,20876,Santiago de Cuba,20.02472,-75.82194,,,
598,203,Czech Republic,20881,Brno,49.19522,16.60796,,,
599,203,Czech Republic,20887,Praha (Prague),50.08804,14.42076,,,
600,408,Dem. People's Republic of Korea,21713,Chongjin,41.79556,129.77583,,,
601,408,Dem. People's Republic of Korea,21715,Hamhung,39.91833,127.53639,,,
602,408,Dem. People's Republic of Korea,21722,P'yongyang,39.03385,125.75432,,,
603,408,Dem. People's Republic of Korea,21724,Sinuiju,40.10056,124.39806,,,
604,408,Dem. People's Republic of Korea,21725,Wonsan,39.15278,127.44361,,,
605,180,Democratic Republic of the Congo,20850,Bukavu,-2.50833,28.86083,,,
606,180,Democratic Republic of the Congo,205455,Bunia,1.566666667,30.25,,,
607,180,Democratic Republic of the Congo,205453,Goma,-1.679166667,29.22277778,,,
608,180,Democratic Republic of the Congo,20851,Kananga,-5.89624,22.41659,,,
609,180,Democratic Republic of the Congo,20852,Kikwit,-5.04098,18.81619,,,
610,180,Democratic Republic of the Congo,20853,Kinshasa,-4.32758,15.31357,,,
611,180,Democratic Republic of the Congo,20854,Kisangani,0.51667,25.2,,,
612,180,Democratic Republic of the Congo,23555,Kolwezi,-10.71484,25.46674,,,
613,180,Democratic Republic of the Congo,20855,Likasi,-10.98139,26.73333,,,
614,180,Democratic Republic of the Congo,20856,Lubumbashi,-11.66089,27.47938,,,
615,180,Democratic Republic of the Congo,20857,Matadi,-5.8177,13.4717,,,
616,180,Democratic Republic of the Congo,20858,Mbandaka,0.04865,18.26034,,,
617,180,Democratic Republic of the Congo,20859,Mbuji-Mayi,-6.15,23.6,,,
618,180,Democratic Republic of the Congo,204243,Tshikapa,-6.41621,20.79995,,,
619,180,Democratic Republic of the Congo,205454,Uvira,-3.39534,29.13779,,,
620,208,Denmark,20894,København (Copenhagen),55.67594,12.56553,,,
621,262,Djibouti,21005,Djibouti,11.58767,43.14468,,,
622,214,Dominican Republic,20897,Santiago,19.460205,-70.699686,,,
623,214,Dominican Republic,20898,Santo Domingo,18.489591,-69.901805,,,
624,218,Ecuador,20900,Cuenca,-2.88333,-78.98333,,,
625,218,Ecuador,20903,Guayaquil,-2.16667,-79.9,,,
626,218,Ecuador,20910,Quito,-0.22985,-78.52495,,,
627,218,Ecuador,20912,Santo Domingo,-0.253431,-79.169555,,,
628,818,Egypt,22814,Al-Fayyum,29.30995,30.8418,,,
629,818,Egypt,22804,Al-Iskandariyah (Alexandria),31.192471,29.904596,,,
630,818,Egypt,22815,Al-Ismailiyah,30.60427,32.27225,,,
631,818,Egypt,22806,Al-Mahallah al-Kubra,30.9745,31.16499,,,
632,818,Egypt,22819,Al-Mansurah,31.03637,31.38069,,,
633,818,Egypt,22812,Al-Qahirah (Cairo),30.039173,31.239411,,,
634,818,Egypt,22827,As-Suways,29.968133,32.547497,,,
635,818,Egypt,22808,Aswan,24.09343,32.90704,,,
636,818,Egypt,22807,Asyut,27.18096,31.18368,,,
637,818,Egypt,22829,Az-Zaqazig,30.5875,31.50194444,,,
638,818,Egypt,22823,Bur Sa'id,31.25654,32.28412,,,
639,818,Egypt,22816,Kafr-ad-Dawwar,31.13385,30.12843,,,
640,818,Egypt,22828,Tanta,30.787176,30.999539,,,
641,222,El Salvador,20917,San Salvador,13.68935,-89.18718,,,
642,232,Eritrea,20931,Asmara,15.33333,38.93333,,,
643,233,Estonia,20932,Tallinn,59.43696,24.75353,,,
644,231,Ethiopia,20921,Addis Ababa,9.02497,38.74689,,,
645,231,Ethiopia,20929,Mekele,13.49667,39.47528,,,
646,246,Finland,20937,Helsinki,60.169246,24.940216,,,
647,246,Finland,20942,Tampere,61.49911,23.78712,,,
654,250,France,20972,Lyon,45.74846,4.84671,,1970,1983
659,250,France,20985,Paris,48.85341,2.3488,,1968,1983
657,250,France,20981,Nantes,47.21725,-1.55336,,1989,1990
666,250,France,20998,Tours,47.38333,0.68333,,1974,1990
651,250,France,20960,Douai-Lens,50.368243,3.079497,,1968,1993
653,250,France,20969,Lille,50.63297,3.05858,,1968,1993
648,250,France,20948,Avignon,43.94834,4.80892,,1970,2001
655,250,France,20973,Marseille-Aix-en-Provence,43.528414,5.443298,,1970,2001
656,250,France,20978,Montpellier,43.61092,3.87723,,1973,2001
663,250,France,20994,Strasbourg,48.58342,7.74296,,1977,2016
650,250,France,20952,Bordeaux,44.84044,-0.5805,,1981,2017
660,250,France,20990,Rennes,48.11198,-1.67429,,1980,2017
649,250,France,20951,Béthune,50.53333,2.63333,,1968,
652,250,France,20963,Grenoble,45.16667,5.71667,,1976,
658,250,France,20982,Nice-Cannes,43.6646,7.15339,,1973,
661,250,France,20991,Rouen,49.44313,1.09932,,1972,
662,250,France,20992,Saint-Étienne,45.43333,4.4,,1970,
664,250,France,20996,Toulon,43.123989,5.933225,,1975,
665,250,France,20997,Toulouse,43.60426,1.44367,,1979,
667,250,France,21001,Valenciennes,50.35,3.53333,,1972,
668,266,Gabon,21006,Libreville,0.3925,9.45365,,,
669,270,Gambia,21012,Banjul,13.453099,-16.679433,,,
670,268,Georgia,21011,Tbilisi,41.69411,44.83368,,,
671,276,Germany,204296,Berlin,52.52437,13.41053,,,
672,276,Germany,204297,Bielefeld,52.03333,8.53333,,,
673,276,Germany,204298,Bochum,51.48333,7.21667,,,
674,276,Germany,204299,Bonn,50.73438,7.09548,,,
675,276,Germany,204303,Bremen,53.07516,8.80777,,,
676,276,Germany,204310,Dortmund,51.51667,7.45,,,
677,276,Germany,204437,Dresden,51.05089,13.73832,,,
678,276,Germany,204312,Duesseldorf,51.22172,6.77616,,,
679,276,Germany,204311,Duisburg,51.43333,6.75,,,
680,276,Germany,204316,Essen,51.45374,7.010388,,,
681,276,Germany,204332,Frankfurt am Main,50.11667,8.68333,,,
682,276,Germany,204341,Hamburg,53.55,10,,,
683,276,Germany,204343,Hannover,52.37052,9.73322,,,
684,276,Germany,204352,Karlsruhe,49.00472,8.38583,,,
685,276,Germany,204358,Köln (Cologne),50.93333,6.95,,,
686,276,Germany,204439,Leipzig,51.33962,12.37129,,,
687,276,Germany,204367,Mannheim,49.48833,8.46472,,,
688,276,Germany,204372,Muenster (Westfalen),51.96236,7.62571,,,
689,276,Germany,204371,München (Munich),48.137076,11.573377,,,
690,276,Germany,204376,Nurenberg,49.450418,11.075791,,,
691,276,Germany,204397,Stuttgart,48.78232,9.17702,,,
692,276,Germany,204410,Wuppertal,51.26667,7.18333,,,
693,288,Ghana,21107,Accra,5.55602,-0.1969,,,
694,288,Ghana,21108,Kumasi,6.68848,-1.62443,,,
695,288,Ghana,21109,Sekondi Takoradi,4.934,-1.7137,,,
696,288,Ghana,21110,Tamale,9.40078,-0.8393,,,
697,300,Greece,21113,Athínai (Athens),37.95342,23.74897,,,
698,300,Greece,21117,Thessaloniki,40.64028,22.94389,,,
699,320,Guatemala,21124,Ciudad de Guatemala (Guatemala City),14.612652,-90.530746,,,
700,324,Guinea,21126,Conakry,9.571642,-13.647602,,,
701,324,Guinea,21130,Nzérékoré,7.75624,-8.8179,,,
702,624,Guinea-Bissau,22171,Bissau,11.86357,-15.59767,,,
703,332,Haiti,21133,Port-au-Prince,18.53917,-72.335,,,
704,340,Honduras,23503,Choloma,15.61444,-87.95302,,,
705,340,Honduras,21135,San Pedro Sula,15.5,-88.03333,,,
706,340,Honduras,21136,Tegucigalpa,14.0818,-87.20681,,,
707,348,Hungary,21138,Budapest,47.49801,19.03991,,,
708,356,India,21150,Agartala,23.83639,91.275,,,
709,356,India,21151,Agra,27.18333,78.01667,,,
710,356,India,21152,Ahmadabad,23.03333,72.61667,,,
711,356,India,21153,Ahmadnagar,19.08333,74.73333,,,
712,356,India,21154,Aizawl,23.72444,92.7175,,,
713,356,India,21155,Ajmer,26.45,74.63333,,,
714,356,India,21156,Akola,20.73333,77,,,
715,356,India,21158,Aligarh,27.88333,78.08333,,,
716,356,India,21160,Allahabad,25.45,81.85,,,
717,356,India,21161,Alwar,27.56246,76.625,,,
718,356,India,21163,Amravati,20.93333,77.75,,,
719,356,India,21164,Amritsar,31.630953,74.875536,,,
720,356,India,21166,Anand,22.56667,72.93333,,,
721,356,India,21167,Anantapur,14.68333,77.6,,,
859,356,India,21416,Thrissur,10.51667,76.21667,,,
860,356,India,21417,Tiruchirappalli,10.805,78.68556,,,
861,356,India,21418,Tirunelveli,8.73333,77.7,,,
862,356,India,21419,Tirupati,13.65,79.41667,,,
863,356,India,21420,Tiruppur,11.11541,77.35456,,,
864,356,India,21423,Tumkur,13.34222,77.10167,,,
865,356,India,21425,Udaipur,24.566108,73.691075,,,
866,356,India,21427,Ujjain,23.18333,75.76667,,,
867,356,India,21430,Vadodara,22.3,73.2,,,
868,356,India,21433,Varanasi (Benares),25.316426,82.982198,,,
869,356,India,21434,Vellore,12.93333,79.13333,,,
870,356,India,21435,Vijayawada,16.51667,80.61667,,,
871,356,India,21436,Visakhapatnam,17.681874,83.209685,,,
872,356,India,21439,Warangal,18,79.58333,,,
873,356,India,21441,Yamunanagar,30.1,77.28333,,,
874,360,Indonesia,21443,Ambon,-3.69543,128.1814,,,
875,360,Indonesia,21444,Balikpapan,-1.26753,116.82887,,,
876,360,Indonesia,21446,Bandar Lampung,-5.4254,105.258,,,
877,360,Indonesia,21447,Bandung,-6.919393,107.608456,,,
878,360,Indonesia,21448,Banjarmasin,-3.32442,114.591,,,
879,360,Indonesia,205695,Batam,1.119078,104.031275,,,
880,360,Indonesia,21449,Bengkulu,-3.800278,102.265278,,,
881,360,Indonesia,21452,Bogor,-6.606481,106.801891,,,
882,360,Indonesia,21453,Cirebon,-6.7063,108.557,,,
883,360,Indonesia,205696,Denpasar,-8.65,115.21667,,,
884,360,Indonesia,21454,Jakarta,-6.211831,106.841646,,,
885,360,Indonesia,21455,Jambi,-1.6,103.61667,,,
886,360,Indonesia,21479,Makassar (Ujung Pandang),-5.144396,119.423639,,,
887,360,Indonesia,21459,Malang,-7.9797,112.6304,,,
888,360,Indonesia,21460,Manado,1.487,124.8455,,,
889,360,Indonesia,206494,Mataram,-8.58333,116.11667,,,
890,360,Indonesia,21461,Medan,3.58333,98.66667,,,
891,360,Indonesia,21462,Padang,-0.94924,100.35427,,,
892,360,Indonesia,21463,Palembang,-2.91673,104.7458,,,
893,360,Indonesia,21467,Pekan Baru,0.53333,101.45,,,
894,360,Indonesia,21469,Pontianak,-0.03333,109.33333,,,
895,360,Indonesia,21471,Samarinda,-0.5,117.15,,,
896,360,Indonesia,21472,Semarang,-6.9932,110.4203,,,
897,360,Indonesia,21473,Sukabumi,-6.91806,106.92667,,,
898,360,Indonesia,21474,Surabaya,-7.288838,112.741078,,,
899,360,Indonesia,21475,Surakarta,-7.55611,110.83167,,,
900,360,Indonesia,206493,Tasikmalaya,-7.327905,108.216618,,,
901,360,Indonesia,21480,Yogyakarta,-7.78278,110.36083,,,
902,364,Iran (Islamic Republic of),21482,Ahvaz,31.3203,48.6693,,,
903,364,Iran (Islamic Republic of),21484,Arak,34.09174,49.68916,,,
904,364,Iran (Islamic Republic of),21485,Ardabil,38.2498,48.2933,,,
905,364,Iran (Islamic Republic of),21488,Bandar Abbas,27.1865,56.2808,,,
906,364,Iran (Islamic Republic of),21493,Esfahan,32.65722,51.67761,,,
907,364,Iran (Islamic Republic of),21498,Eslamshahr,35.562618,51.235883,,,
908,364,Iran (Islamic Republic of),21495,Gorgan,36.84165,54.44361,,,
909,364,Iran (Islamic Republic of),21496,Hamadan,34.79922,48.51456,,,
910,364,Iran (Islamic Republic of),21499,Karaj,35.8355,51.0103,,,
911,364,Iran (Islamic Republic of),21501,Kerman,30.28321,57.07879,,,
1126,554,New Zealand,21958,Christchurch,-43.53333,172.63333,,,
1127,554,New Zealand,21962,Wellington,-41.28664,174.77557,,,
1663,862,Venezuela (Bolivarian Republic of),23224,Guarenas-Guatire,10.46736,-66.60663,,,
1664,862,Venezuela (Bolivarian Republic of),205353,Lagunillas,10.13008,-71.25946,,,
1665,862,Venezuela (Bolivarian Republic of),23226,Maracaibo,10.63167,-71.64056,,,
1666,862,Venezuela (Bolivarian Republic of),23227,Maracay,10.24694,-67.59583,,,
1667,862,Venezuela (Bolivarian Republic of),23228,Maturin,9.75,-63.17667,,,
1668,862,Venezuela (Bolivarian Republic of),23229,Merida,8.59524,-71.1434,,,
1669,862,Venezuela (Bolivarian Republic of),205351,Punto Fijo,11.6956,-70.19957,,,
1670,862,Venezuela (Bolivarian Republic of),23231,San Cristóbal,7.76694,-72.225,,,
1671,862,Venezuela (Bolivarian Republic of),23233,Valencia,10.16202,-68.00765,,,
1672,704,Viet Nam,22450,Bien Hoa,10.95,106.81667,,,
1673,704,Viet Nam,23355,Can Tho,10.03333,105.78333,,,
1674,704,Viet Nam,22455,Da Nang,16.051264,108.212426,,,
1675,704,Viet Nam,22457,Hà Noi,21.0245,105.84117,,,
1676,704,Viet Nam,22456,Hai Phòng,20.86481,106.68345,,,
1677,704,Viet Nam,23366,Hue,16.46667,107.6,,,
1678,704,Viet Nam,23370,Nha Trang,12.25,109.18333,,,
1679,704,Viet Nam,22458,Thành Pho Ho Chí Minh (Ho Chi Minh City),10.75,106.66667,,,
1680,704,Viet Nam,23380,Vungtau,10.34599,107.08426,,,
1681,887,Yemen,23237,Adan (Aden),12.798803,45.035902,,,
1682,887,Yemen,23238,Al-Hudaydah,14.79781,42.95452,,,
1683,887,Yemen,23741,Al-Mukalla,14.54248,49.12424,,,
1684,887,Yemen,23745,Ibb,13.96667,44.18333,,,
1685,887,Yemen,23239,Sana'a',15.353115,44.20782,,,
1686,887,Yemen,23240,Ta'izz,13.57952,44.02091,,,
1687,894,Zambia,23274,Kitwe,-12.8166667,28.2,,,
1688,894,Zambia,23277,Lusaka,-15.413374,28.277148,,,
1689,894,Zambia,23279,Ndola,-12.95867,28.63659,,,
1690,716,Zimbabwe,22510,Bulawayo,-20.15,28.58333,,,
1691,716,Zimbabwe,22511,Chitungwiza,-18.01274,31.07555,,,
1692,716,Zimbabwe,22513,Harare,-17.82935,31.05389,,,
